start=new Date('2023-06-02T00:00:00.000Z').valueOf();
sats=[{"SITE":"AFETR","APOAPSIS":"548.152","LAUNCH_DATE":"2020-01-29","INCLINATION":"53.0549","OBJECT_TYPE":"PAYLOAD","MEAN_ELEMENT_THEORY":"SGP4","TLE_LINE1":"1 45084U 20006AS  23152.17559363  .00002642  00000-0  19625-3 0  9991","EPHEMERIS_TYPE":"0","REF_FRAME":"TEME","MEAN_MOTION_DDOT":"0.0000000000000","ARG_OF_PERICENTER":"88.5453","PERIOD":"95.593","TIME_SYSTEM":"UTC","ELEMENT_SET_NO":"999","FILE":"3922365","COUNTRY_CODE":"US","CLASSIFICATION_TYPE":"U","OBJECT_NAME":"STARLINK-1173","REV_AT_EPOCH":"18486","SEMIMAJOR_AXIS":"6925.370","MEAN_MOTION_DOT":"0.00002642","GP_ID":"232959342","CENTER_NAME":"EARTH","MEAN_MOTION":"15.06393027","EPOCH":"2023-06-01T04:12:51.289632","RA_OF_ASC_NODE":"111.9663","OBJECT_ID":"2020-006AS","BSTAR":"0.00019625000000","MEAN_ANOMALY":"271.5688","PERIAPSIS":"546.318","ECCENTRICITY":"0.00013240","NORAD_CAT_ID":"45084","TLE_LINE2":"2 45084  53.0549 111.9663 0001324  88.5453 271.5688 15.06393027184869","RCS_SIZE":"LARGE","DECAY_DATE":null},{"OBJECT_ID":"2020-006AT","EPOCH":"2023-06-01T04:07:32.979936","MEAN_MOTION":"15.06390263","RA_OF_ASC_NODE":"111.9825","CENTER_NAME":"EARTH","GP_ID":"232958596","MEAN_MOTION_DOT":"0.00001921","REV_AT_EPOCH":"18475","SEMIMAJOR_AXIS":"6925.378","DECAY_DATE":null,"RCS_SIZE":"LARGE","TLE_LINE2":"2 45085  53.0544 111.9825 0001134  90.1476 269.9643 15.06390263184757","ECCENTRICITY":"0.00011340","NORAD_CAT_ID":"45085","PERIAPSIS":"546.458","MEAN_ANOMALY":"269.9643","BSTAR":"0.00014786000000","REF_FRAME":"TEME","OBJECT_TYPE":"PAYLOAD","MEAN_ELEMENT_THEORY":"SGP4","EPHEMERIS_TYPE":"0","TLE_LINE1":"1 45085U 20006AT  23152.17190949  .00001921  00000-0  14786-3 0  9995","LAUNCH_DATE":"2020-01-29","INCLINATION":"53.0544","APOAPSIS":"548.029","SITE":"AFETR","COUNTRY_CODE":"US","OBJECT_NAME":"STARLINK-1179","CLASSIFICATION_TYPE":"U","TIME_SYSTEM":"UTC","FILE":"3922365","ELEMENT_SET_NO":"999","ARG_OF_PERICENTER":"90.1476","PERIOD":"95.593","MEAN_MOTION_DDOT":"0.0000000000000"},{"REF_FRAME":"TEME","EPHEMERIS_TYPE":"0","TLE_LINE1":"1 45087U 20006AV  23152.15716109  .00001355  00000-0  10984-3 0  9994","MEAN_ELEMENT_THEORY":"SGP4","OBJECT_TYPE":"PAYLOAD","INCLINATION":"53.0540","LAUNCH_DATE":"2020-01-29","APOAPSIS":"548.231","SITE":"AFETR","COUNTRY_CODE":"US","OBJECT_NAME":"STARLINK-1185","CLASSIFICATION_TYPE":"U","ELEMENT_SET_NO":"999","FILE":"3922365","TIME_SYSTEM":"UTC","PERIOD":"95.593","ARG_OF_PERICENTER":"108.5491","MEAN_MOTION_DDOT":"0.0000000000000","OBJECT_ID":"2020-006AV","RA_OF_ASC_NODE":"112.0457","EPOCH":"2023-06-01T03:46:18.718176","MEAN_MOTION":"15.06390404","CENTER_NAME":"EARTH","GP_ID":"232958346","MEAN_MOTION_DOT":"0.00001355","SEMIMAJOR_AXIS":"6925.378","REV_AT_EPOCH":"18486","RCS_SIZE":"LARGE","DECAY_DATE":null,"TLE_LINE2":"2 45087  53.0540 112.0457 0001426 108.5491 251.5653 15.06390404184860","NORAD_CAT_ID":"45087","ECCENTRICITY":"0.00014260","PERIAPSIS":"546.255","MEAN_ANOMALY":"251.5653","BSTAR":"0.00010984000000"},{"REF_FRAME":"TEME","TLE_LINE1":"1 45088U 20006AW  23152.90908392  .00002981  00000-0  21886-3 0  9994","EPHEMERIS_TYPE":"0","OBJECT_TYPE":"PAYLOAD","MEAN_ELEMENT_THEORY":"SGP4","APOAPSIS":"548.077","SITE":"AFETR","INCLINATION":"53.0541","LAUNCH_DATE":"2020-01-29","OBJECT_NAME":"STARLINK-1183","COUNTRY_CODE":"US","CLASSIFICATION_TYPE":"U","MEAN_MOTION_DDOT":"0.0000000000000","ELEMENT_SET_NO":"999","FILE":"3922718","TIME_SYSTEM":"UTC","PERIOD":"95.591","ARG_OF_PERICENTER":"81.8323","RA_OF_ASC_NODE":"108.6750","EPOCH":"2023-06-01T21:49:04.850688","MEAN_MOTION":"15.06410985","CENTER_NAME":"EARTH","OBJECT_ID":"2020-006AW","MEAN_MOTION_DOT":"0.00002981","SEMIMAJOR_AXIS":"6925.315","REV_AT_EPOCH":"18452","GP_ID":"232995369","TLE_LINE2":"2 45088  53.0541 108.6750 0001295  81.8323 278.2813 15.06410985184524","NORAD_CAT_ID":"45088","ECCENTRICITY":"0.00012950","RCS_SIZE":"LARGE","DECAY_DATE":null,"BSTAR":"0.00021886000000","PERIAPSIS":"546.283","MEAN_ANOMALY":"278.2813"},{"COUNTRY_CODE":"US","OBJECT_NAME":"STARLINK-1136","CLASSIFICATION_TYPE":"U","ARG_OF_PERICENTER":"79.5257","PERIOD":"95.592","TIME_SYSTEM":"UTC","FILE":"3922718","ELEMENT_SET_NO":"999","MEAN_MOTION_DDOT":"0.0000000000000","MEAN_ELEMENT_THEORY":"SGP4","OBJECT_TYPE":"PAYLOAD","EPHEMERIS_TYPE":"0","TLE_LINE1":"1 45089U 20006AX  23152.91646693 -.00000123  00000-0  10628-4 0  9999","REF_FRAME":"TEME","LAUNCH_DATE":"2020-01-29","INCLINATION":"53.0554","SITE":"AFETR","APOAPSIS":"548.054","DECAY_DATE":null,"RCS_SIZE":"LARGE","ECCENTRICITY":"0.00012540","NORAD_CAT_ID":"45089","TLE_LINE2":"2 45089  53.0554 108.7257 0001254  79.5257 280.5874 15.06409178184533","MEAN_ANOMALY":"280.5874","PERIAPSIS":"546.317","BSTAR":"0.00001062800000","OBJECT_ID":"2020-006AX","CENTER_NAME":"EARTH","EPOCH":"2023-06-01T21:59:42.742752","MEAN_MOTION":"15.06409178","RA_OF_ASC_NODE":"108.7257","GP_ID":"232994117","REV_AT_EPOCH":"18453","SEMIMAJOR_AXIS":"6925.320","MEAN_MOTION_DOT":"-0.00000123"},{"REV_AT_EPOCH":"18441","SEMIMAJOR_AXIS":"6925.375","MEAN_MOTION_DOT":"0.00000406","GP_ID":"232958096","CENTER_NAME":"EARTH","EPOCH":"2023-06-01T03:55:33.820896","MEAN_MOTION":"15.06391258","RA_OF_ASC_NODE":"112.0119","OBJECT_ID":"2020-006AY","BSTAR":"0.00004617900000","MEAN_ANOMALY":"261.9709","PERIAPSIS":"546.367","ECCENTRICITY":"0.00012610","NORAD_CAT_ID":"45090","TLE_LINE2":"2 45090  53.0542 112.0119 0001261  98.1423 261.9709 15.06391258184413","RCS_SIZE":"LARGE","DECAY_DATE":null,"SITE":"AFETR","APOAPSIS":"548.114","LAUNCH_DATE":"2020-01-29","INCLINATION":"53.0542","OBJECT_TYPE":"PAYLOAD","MEAN_ELEMENT_THEORY":"SGP4","EPHEMERIS_TYPE":"0","TLE_LINE1":"1 45090U 20006AY  23152.16358589  .00000406  00000-0  46179-4 0  9995","REF_FRAME":"TEME","MEAN_MOTION_DDOT":"0.0000000000000","ARG_OF_PERICENTER":"98.1423","PERIOD":"95.593","TIME_SYSTEM":"UTC","ELEMENT_SET_NO":"999","FILE":"3922365","CLASSIFICATION_TYPE":"U","COUNTRY_CODE":"US","OBJECT_NAME":"STARLINK-1176"},{"PERIAPSIS":"546.335","MEAN_ANOMALY":"266.0790","BSTAR":"0.00009795400000","RCS_SIZE":"LARGE","DECAY_DATE":null,"TLE_LINE2":"2 45092  53.0534 111.8351 0001323  94.0350 266.0790 15.06387577184767","NORAD_CAT_ID":"45092","ECCENTRICITY":"0.00013230","GP_ID":"232958847","MEAN_MOTION_DOT":"0.00001177","SEMIMAJOR_AXIS":"6925.387","REV_AT_EPOCH":"18476","OBJECT_ID":"2020-006BA","RA_OF_ASC_NODE":"111.8351","MEAN_MOTION":"15.06387577","EPOCH":"2023-06-01T04:55:19.206624","CENTER_NAME":"EARTH","FILE":"3922365","ELEMENT_SET_NO":"999","TIME_SYSTEM":"UTC","PERIOD":"95.593","ARG_OF_PERICENTER":"94.0350","MEAN_MOTION_DDOT":"0.0000000000000","OBJECT_NAME":"STARLINK-1137","COUNTRY_CODE":"US","CLASSIFICATION_TYPE":"U","INCLINATION":"53.0534","LAUNCH_DATE":"2020-01-29","APOAPSIS":"548.168","SITE":"AFETR","REF_FRAME":"TEME","EPHEMERIS_TYPE":"0","TLE_LINE1":"1 45092U 20006BA  23152.20508341  .00001177  00000-0  97954-4 0  9998","MEAN_ELEMENT_THEORY":"SGP4","OBJECT_TYPE":"PAYLOAD"},{"INCLINATION":"53.0546","LAUNCH_DATE":"2020-01-29","APOAPSIS":"548.330","SITE":"AFETR","REF_FRAME":"TEME","EPHEMERIS_TYPE":"0","TLE_LINE1":"1 45093U 20006BB  23152.26774215  .00001734  00000-0  13533-3 0  9999","MEAN_ELEMENT_THEORY":"SGP4","OBJECT_TYPE":"PAYLOAD","ELEMENT_SET_NO":"999","FILE":"3922365","TIME_SYSTEM":"UTC","PERIOD":"95.593","ARG_OF_PERICENTER":"99.3859","MEAN_MOTION_DDOT":"0.0000000000000","CLASSIFICATION_TYPE":"U","COUNTRY_CODE":"US","OBJECT_NAME":"STARLINK-1142","GP_ID":"232959598","MEAN_MOTION_DOT":"0.00001734","SEMIMAJOR_AXIS":"6925.376","REV_AT_EPOCH":"18442","OBJECT_ID":"2020-006BB","RA_OF_ASC_NODE":"111.5604","MEAN_MOTION":"15.06390966","EPOCH":"2023-06-01T06:25:32.921760","CENTER_NAME":"EARTH","PERIAPSIS":"546.153","MEAN_ANOMALY":"260.7307","BSTAR":"0.00013533000000","DECAY_DATE":null,"RCS_SIZE":"LARGE","TLE_LINE2":"2 45093  53.0546 111.5604 0001572  99.3859 260.7307 15.06390966184421","NORAD_CAT_ID":"45093","ECCENTRICITY":"0.00015720"},{"SITE":"AFETR","APOAPSIS":"548.169","INCLINATION":"53.0546","LAUNCH_DATE":"2020-01-29","EPHEMERIS_TYPE":"0","TLE_LINE1":"1 45094U 20006BC  23152.28153655  .00001128  00000-0  94647-4 0  9994","OBJECT_TYPE":"PAYLOAD","MEAN_ELEMENT_THEORY":"SGP4","REF_FRAME":"TEME","MEAN_MOTION_DDOT":"0.0000000000000","PERIOD":"95.593","ARG_OF_PERICENTER":"104.6456","FILE":"3922365","ELEMENT_SET_NO":"999","TIME_SYSTEM":"UTC","COUNTRY_CODE":"US","OBJECT_NAME":"STARLINK-1146","CLASSIFICATION_TYPE":"U","SEMIMAJOR_AXIS":"6925.374","REV_AT_EPOCH":"18443","MEAN_MOTION_DOT":"0.00001128","GP_ID":"232959343","CENTER_NAME":"EARTH","RA_OF_ASC_NODE":"111.4834","MEAN_MOTION":"15.06391595","EPOCH":"2023-06-01T06:45:24.757920","OBJECT_ID":"2020-006BC","BSTAR":"0.00009464700000","MEAN_ANOMALY":"255.4681","PERIAPSIS":"546.309","NORAD_CAT_ID":"45094","ECCENTRICITY":"0.00013430","TLE_LINE2":"2 45094  53.0546 111.4834 0001343 104.6456 255.4681 15.06391595184431","RCS_SIZE":"LARGE","DECAY_DATE":null},{"OBJECT_TYPE":"PAYLOAD","MEAN_ELEMENT_THEORY":"SGP4","TLE_LINE1":"1 45095U 20006BD  23152.15253152  .00000397  00000-0  45555-4 0  9995","EPHEMERIS_TYPE":"0","REF_FRAME":"TEME","LAUNCH_DATE":"2020-01-29","INCLINATION":"53.0542","SITE":"AFETR","APOAPSIS":"548.027","COUNTRY_CODE":"US","CLASSIFICATION_TYPE":"U","OBJECT_NAME":"STARLINK-1147","ARG_OF_PERICENTER":"100.7423","PERIOD":"95.593","TIME_SYSTEM":"UTC","FILE":"3922365","ELEMENT_SET_NO":"999","MEAN_MOTION_DDOT":"0.0000000000000","OBJECT_ID":"2020-006BD","CENTER_NAME":"EARTH","EPOCH":"2023-06-01T03:39:38.723328","MEAN_MOTION":"15.06389602","RA_OF_ASC_NODE":"112.0636","GP_ID":"232958597","REV_AT_EPOCH":"18476","SEMIMAJOR_AXIS":"6925.380","MEAN_MOTION_DOT":"0.00000397","RCS_SIZE":"LARGE","DECAY_DATE":null,"ECCENTRICITY":"0.00011290","NORAD_CAT_ID":"45095","TLE_LINE2":"2 45095  53.0542 112.0636 0001129 100.7423 259.3693 15.06389602184766","MEAN_ANOMALY":"259.3693","PERIAPSIS":"546.464","BSTAR":"0.00004555500000"}];
